STARLINK-35945          
1 66925U 25286A   26003.96035483  .00127130  00000+0  22581-2 0  9993
2 66925  53.1595 301.4354 0001398 101.4102 258.7065 15.49293462  5472
STARLINK-35942          
1 66926U 25286B   26003.91668981  .00058942  00000+0  14755-2 0  9992
2 66926  53.1597 301.9415 0001521 100.8905 227.1152 15.39550919  5558
STARLINK-35943          
1 66927U 25286C   26003.96606794  .00169840  00000+0  29824-2 0  9995
2 66927  53.1604 301.4730 0000952 134.6453 225.4634 15.49437071  5474
STARLINK-35944          
1 66928U 25286D   26003.91668981 -.02072133  00000+0 -51761-1 0  9993
2 66928  53.1598 301.7455 0001168  94.0876 331.7699 15.43224911  5554
STARLINK-36169          
1 66929U 25286E   26003.91668981  .00035920  00000+0  90483-3 0  9999
2 66929  53.1592 301.8382 0001442 111.8092 267.6568 15.39583283  5559
STARLINK-36206          
1 66930U 25286F   26003.96537710  .00158791  00000+0  27906-2 0  9992
2 66930  53.1599 301.4679 0003835 154.8906 205.2290 15.49455803  5470
STARLINK-36130          
1 66931U 25286G   26003.91668981  .00035625  00000+0  89778-3 0  9999
2 66931  53.1601 301.9921 0000883  85.1879 217.0522 15.39575071  5552
STARLINK-36177          
1 66932U 25286H   26003.91668981  .00030730  00000+0  77634-3 0  9990
2 66932  53.1597 301.7847 0001568 103.7944 301.4744 15.39572239  5550
STARLINK-36157          
1 66933U 25286J   26003.25477073  .00171097  00000+0  30092-2 0  9996
2 66933  53.1603 304.8537 0000147 328.0965  32.0035 15.49386556  5361
STARLINK-36153          
1 66934U 25286K   26003.91668981  .00024129  00000+0  61195-3 0  9992
2 66934  53.1592 301.8886 0001268  96.5557 257.1682 15.39586868  5558
STARLINK-36127          
1 66935U 25286L   26003.21771404  .00099011  00000+0  24523-2 0  9996
2 66935  53.1618 305.3350 0001289  58.5165 301.5966 15.39631724  5358
STARLINK-36160          
1 66936U 25286M   26003.91668981 -.02065947  00000+0 -50115-1 0  9999
2 66936  53.1593 301.6981 0001196 100.2476 348.6400 15.44072578  5556
