CCSDS_OMM_VERS = 2.0
CREATION_DATE  = 
ORIGINATOR     = 

OBJECT_NAME    = STARLINK-35945
OBJECT_ID      = 2025-286A
CENTER_NAME    = EARTH
REF_FRAME      = TEME
TIME_SYSTEM    = UTC
MEAN_ELEMENT_THEORY = SGP/SGP4

EPOCH          = 2026-01-03T23:02:54.657312
MEAN_MOTION    = 15.49293462
ECCENTRICITY   = .00013985
INCLINATION    = 53.1595
RA_OF_ASC_NODE = 301.4354
ARG_OF_PERICENTER = 101.4102
MEAN_ANOMALY   = 258.7065

EPHEMERIS_TYPE = 0
CLASSIFICATION_TYPE = U
NORAD_CAT_ID   = 66925
ELEMENT_SET_NO = 999
REV_AT_EPOCH   = 547
BSTAR          = .22580736E-2
MEAN_MOTION_DOT = .12713E-2
MEAN_MOTION_DDOT = 0

CCSDS_OMM_VERS = 2.0
CREATION_DATE  = 
ORIGINATOR     = 

OBJECT_NAME    = STARLINK-35942
OBJECT_ID      = 2025-286B
CENTER_NAME    = EARTH
REF_FRAME      = TEME
TIME_SYSTEM    = UTC
MEAN_ELEMENT_THEORY = SGP/SGP4

EPOCH          = 2026-01-03T22:00:01.999584
MEAN_MOTION    = 15.39550919
ECCENTRICITY   = .00015214
INCLINATION    = 53.1597
RA_OF_ASC_NODE = 301.9415
ARG_OF_PERICENTER = 100.8905
MEAN_ANOMALY   = 227.1152

EPHEMERIS_TYPE = 0
CLASSIFICATION_TYPE = U
NORAD_CAT_ID   = 66926
ELEMENT_SET_NO = 999
REV_AT_EPOCH   = 555
BSTAR          = .1475496E-2
MEAN_MOTION_DOT = .58942E-3
MEAN_MOTION_DDOT = 0

CCSDS_OMM_VERS = 2.0
CREATION_DATE  = 
ORIGINATOR     = 

OBJECT_NAME    = STARLINK-35943
OBJECT_ID      = 2025-286C
CENTER_NAME    = EARTH
REF_FRAME      = TEME
TIME_SYSTEM    = UTC
MEAN_ELEMENT_THEORY = SGP/SGP4

EPOCH          = 2026-01-03T23:11:08.270016
MEAN_MOTION    = 15.49437071
ECCENTRICITY   = .00009521
INCLINATION    = 53.1604
RA_OF_ASC_NODE = 301.4730
ARG_OF_PERICENTER = 134.6453
MEAN_ANOMALY   = 225.4634

EPHEMERIS_TYPE = 0
CLASSIFICATION_TYPE = U
NORAD_CAT_ID   = 66927
ELEMENT_SET_NO = 999
REV_AT_EPOCH   = 547
BSTAR          = .29824067E-2
MEAN_MOTION_DOT = .16984E-2
MEAN_MOTION_DDOT = 0

CCSDS_OMM_VERS = 2.0
CREATION_DATE  = 
ORIGINATOR     = 

OBJECT_NAME    = STARLINK-35944
OBJECT_ID      = 2025-286D
CENTER_NAME    = EARTH
REF_FRAME      = TEME
TIME_SYSTEM    = UTC
MEAN_ELEMENT_THEORY = SGP/SGP4

EPOCH          = 2026-01-03T22:00:01.999584
MEAN_MOTION    = 15.43224911
ECCENTRICITY   = .00011682
INCLINATION    = 53.1598
RA_OF_ASC_NODE = 301.7455
ARG_OF_PERICENTER = 94.0876
MEAN_ANOMALY   = 331.7699

EPHEMERIS_TYPE = 0
CLASSIFICATION_TYPE = U
NORAD_CAT_ID   = 66928
ELEMENT_SET_NO = 999
REV_AT_EPOCH   = 555
BSTAR          = -.51760765E-1
MEAN_MOTION_DOT = -.2072133E-1
MEAN_MOTION_DDOT = 0

CCSDS_OMM_VERS = 2.0
CREATION_DATE  = 
ORIGINATOR     = 

OBJECT_NAME    = STARLINK-36169
OBJECT_ID      = 2025-286E
CENTER_NAME    = EARTH
REF_FRAME      = TEME
TIME_SYSTEM    = UTC
MEAN_ELEMENT_THEORY = SGP/SGP4

EPOCH          = 2026-01-03T22:00:01.999584
MEAN_MOTION    = 15.39583283
ECCENTRICITY   = .00014424
INCLINATION    = 53.1592
RA_OF_ASC_NODE = 301.8382
ARG_OF_PERICENTER = 111.8092
MEAN_ANOMALY   = 267.6568

EPHEMERIS_TYPE = 0
CLASSIFICATION_TYPE = U
NORAD_CAT_ID   = 66929
ELEMENT_SET_NO = 999
REV_AT_EPOCH   = 555
BSTAR          = .90482659E-3
MEAN_MOTION_DOT = .3592E-3
MEAN_MOTION_DDOT = 0

CCSDS_OMM_VERS = 2.0
CREATION_DATE  = 
ORIGINATOR     = 

OBJECT_NAME    = STARLINK-36206
OBJECT_ID      = 2025-286F
CENTER_NAME    = EARTH
REF_FRAME      = TEME
TIME_SYSTEM    = UTC
MEAN_ELEMENT_THEORY = SGP/SGP4

EPOCH          = 2026-01-03T23:10:08.581440
MEAN_MOTION    = 15.49455803
ECCENTRICITY   = .00038356
INCLINATION    = 53.1599
RA_OF_ASC_NODE = 301.4679
ARG_OF_PERICENTER = 154.8906
MEAN_ANOMALY   = 205.2290

EPHEMERIS_TYPE = 0
CLASSIFICATION_TYPE = U
NORAD_CAT_ID   = 66930
ELEMENT_SET_NO = 999
REV_AT_EPOCH   = 547
BSTAR          = .27906496E-2
MEAN_MOTION_DOT = .158791E-2
MEAN_MOTION_DDOT = 0

CCSDS_OMM_VERS = 2.0
CREATION_DATE  = 
ORIGINATOR     = 

OBJECT_NAME    = STARLINK-36130
OBJECT_ID      = 2025-286G
CENTER_NAME    = EARTH
REF_FRAME      = TEME
TIME_SYSTEM    = UTC
MEAN_ELEMENT_THEORY = SGP/SGP4

EPOCH          = 2026-01-03T22:00:01.999584
MEAN_MOTION    = 15.39575071
ECCENTRICITY   = .00008838
INCLINATION    = 53.1601
RA_OF_ASC_NODE = 301.9921
ARG_OF_PERICENTER = 85.1879
MEAN_ANOMALY   = 217.0522

EPHEMERIS_TYPE = 0
CLASSIFICATION_TYPE = U
NORAD_CAT_ID   = 66931
ELEMENT_SET_NO = 999
REV_AT_EPOCH   = 555
BSTAR          = .89777898E-3
MEAN_MOTION_DOT = .35625E-3
MEAN_MOTION_DDOT = 0

CCSDS_OMM_VERS = 2.0
CREATION_DATE  = 
ORIGINATOR     = 

OBJECT_NAME    = STARLINK-36177
OBJECT_ID      = 2025-286H
CENTER_NAME    = EARTH
REF_FRAME      = TEME
TIME_SYSTEM    = UTC
MEAN_ELEMENT_THEORY = SGP/SGP4

EPOCH          = 2026-01-03T22:00:01.999584
MEAN_MOTION    = 15.39572239
ECCENTRICITY   = .00015681
INCLINATION    = 53.1597
RA_OF_ASC_NODE = 301.7847
ARG_OF_PERICENTER = 103.7944
MEAN_ANOMALY   = 301.4744

EPHEMERIS_TYPE = 0
CLASSIFICATION_TYPE = U
NORAD_CAT_ID   = 66932
ELEMENT_SET_NO = 999
REV_AT_EPOCH   = 555
BSTAR          = .77633988E-3
MEAN_MOTION_DOT = .3073E-3
MEAN_MOTION_DDOT = 0

CCSDS_OMM_VERS = 2.0
CREATION_DATE  = 
ORIGINATOR     = 

OBJECT_NAME    = STARLINK-36157
OBJECT_ID      = 2025-286J
CENTER_NAME    = EARTH
REF_FRAME      = TEME
TIME_SYSTEM    = UTC
MEAN_ELEMENT_THEORY = SGP/SGP4

EPOCH          = 2026-01-03T06:06:52.191072
MEAN_MOTION    = 15.49386556
ECCENTRICITY   = .0000147
INCLINATION    = 53.1603
RA_OF_ASC_NODE = 304.8537
ARG_OF_PERICENTER = 328.0965
MEAN_ANOMALY   = 32.0035

EPHEMERIS_TYPE = 0
CLASSIFICATION_TYPE = U
NORAD_CAT_ID   = 66933
ELEMENT_SET_NO = 999
REV_AT_EPOCH   = 536
BSTAR          = .30092E-2
MEAN_MOTION_DOT = .171097E-2
MEAN_MOTION_DDOT = 0

CCSDS_OMM_VERS = 2.0
CREATION_DATE  = 
ORIGINATOR     = 

OBJECT_NAME    = STARLINK-36153
OBJECT_ID      = 2025-286K
CENTER_NAME    = EARTH
REF_FRAME      = TEME
TIME_SYSTEM    = UTC
MEAN_ELEMENT_THEORY = SGP/SGP4

EPOCH          = 2026-01-03T22:00:01.999584
MEAN_MOTION    = 15.39586868
ECCENTRICITY   = .00012683
INCLINATION    = 53.1592
RA_OF_ASC_NODE = 301.8886
ARG_OF_PERICENTER = 96.5557
MEAN_ANOMALY   = 257.1682

EPHEMERIS_TYPE = 0
CLASSIFICATION_TYPE = U
NORAD_CAT_ID   = 66934
ELEMENT_SET_NO = 999
REV_AT_EPOCH   = 555
BSTAR          = .61194569E-3
MEAN_MOTION_DOT = .24129E-3
MEAN_MOTION_DDOT = 0

CCSDS_OMM_VERS = 2.0
CREATION_DATE  = 
ORIGINATOR     = 

OBJECT_NAME    = STARLINK-36127
OBJECT_ID      = 2025-286L
CENTER_NAME    = EARTH
REF_FRAME      = TEME
TIME_SYSTEM    = UTC
MEAN_ELEMENT_THEORY = SGP/SGP4

EPOCH          = 2026-01-03T05:13:30.493056
MEAN_MOTION    = 15.39631724
ECCENTRICITY   = .0001289
INCLINATION    = 53.1618
RA_OF_ASC_NODE = 305.3350
ARG_OF_PERICENTER = 58.5165
MEAN_ANOMALY   = 301.5966

EPHEMERIS_TYPE = 0
CLASSIFICATION_TYPE = U
NORAD_CAT_ID   = 66935
ELEMENT_SET_NO = 999
REV_AT_EPOCH   = 535
BSTAR          = .24523E-2
MEAN_MOTION_DOT = .99011E-3
MEAN_MOTION_DDOT = 0

CCSDS_OMM_VERS = 2.0
CREATION_DATE  = 
ORIGINATOR     = 

OBJECT_NAME    = STARLINK-36160
OBJECT_ID      = 2025-286M
CENTER_NAME    = EARTH
REF_FRAME      = TEME
TIME_SYSTEM    = UTC
MEAN_ELEMENT_THEORY = SGP/SGP4

EPOCH          = 2026-01-03T22:00:01.999584
MEAN_MOTION    = 15.44072578
ECCENTRICITY   = .00011966
INCLINATION    = 53.1593
RA_OF_ASC_NODE = 301.6981
ARG_OF_PERICENTER = 100.2476
MEAN_ANOMALY   = 348.6400

EPHEMERIS_TYPE = 0
CLASSIFICATION_TYPE = U
NORAD_CAT_ID   = 66936
ELEMENT_SET_NO = 999
REV_AT_EPOCH   = 555
BSTAR          = -.50114736E-1
MEAN_MOTION_DOT = -.2065947E-1
MEAN_MOTION_DDOT = 0

